[{"OBJECT_NAME":"ONEWEB-0231","OBJECT_ID":"2021-045R","EPOCH":"2026-03-09T15:22:24.775392","MEAN_MOTION":13.15548032,"ECCENTRICITY":0.0001777,"INCLINATION":87.8939,"RA_OF_ASC_NODE":279.0747,"ARG_OF_PERICENTER":97.7344,"MEAN_ANOMALY":262.3988,"EPHEMERIS_TYPE":0,"CLASSIFICATION_TYPE":"U","NORAD_CAT_ID":48782,"ELEMENT_SET_NO":999,"REV_AT_EPOCH":23125,"BSTAR":0.00033447,"MEAN_MOTION_DOT":1.39e-6,"MEAN_MOTION_DDOT":0},{"OBJECT_NAME":"SL-8 R\/B","OBJECT_ID":"1971-099B","EPOCH":"2026-03-09T11:07:11.343072","MEAN_MOTION":13.17683303,"ECCENTRICITY":0.00230068,"INCLINATION":74.0298,"RA_OF_ASC_NODE":73.2794,"ARG_OF_PERICENTER":323.1377,"MEAN_ANOMALY":190.6292,"EPHEMERIS_TYPE":0,"CLASSIFICATION_TYPE":"U","NORAD_CAT_ID":5615,"ELEMENT_SET_NO":999,"REV_AT_EPOCH":61155,"BSTAR":-0.00011403671,"MEAN_MOTION_DOT":-6.4e-7,"MEAN_MOTION_DDOT":0}]
